MEAN_MOTION;ECCENTRICITY;INCLINATION;RA_OF_ASC_NODE;ARG_OF_PERICENTER;MEAN_ANOMALY;BSTAR;MEAN_MOTION_DOT;MEAN_MOTION_DDOT;TYPE
1.00272277;0.0003169;0.0146;227.8465;125.6348;146.7508;0;-2.5E-7;0;Intelsat
1.00272298;0.0003176;0.0134;224.458;129.7354;232.2445;0;-2.6E-7;0;Intelsat
1.00272355;0.0003204;0.0099;220.425;135.3374;147.2648;0;-2.9E-7;0;Intelsat
1.00272386;0.0003208;0.0095;212.6338;143.772;240.2294;0;-3.0E-7;0;Intelsat
1.0027113;0.0003155;0.011;200.1634;156.489;123.2728;0;-3.2E-7;0;Intelsat
1.00271269;0.0003162;0.0157;196.0076;160.4356;234.4072;0;-3.3E-7;0;Intelsat
1.00271217;0.0003169;0.0157;196.3687;160.7276;341.0455;0;-3.4E-7;0;Intelsat
1.00271242;0.0003181;0.0188;192.0354;165.6148;125.088;0;-3.5E-7;0;Intelsat
1.00271343;0.0003179;0.019;190.3883;168.0017;245.6836;0;-3.5E-7;0;Intelsat
1.00271348;0.000318;0.02;190.8328;168.3367;339.4546;0;-3.6E-7;0;Intelsat
1.0027145;0.0003183;0.0143;176.9224;186.5924;337.8482;0;-3.7E-7;0;Intelsat
1.00271546;0.0003201;0.0128;166.6011;198.2483;123.4884;0;-3.7E-7;0;Intelsat
1.00270922;0.000311;0.0215;245.1577;123.0451;71.0988;0;-3.7E-7;0;Intelsat
1.00271039;0.0003119;0.0212;244.4587;124.2868;122.3901;0;-3.7E-7;0;Intelsat
1.00271321;0.0003122;0.0178;238.6826;132.9245;96.482;0;-3.6E-7;0;Intelsat
1.00271343;0.0003124;0.0178;238.5434;133.3115;122.082;0;-3.6E-7;0;Intelsat
1.00271672;0.0003122;0.0142;233.1761;141.4514;96.2007;0;-3.5E-7;0;Intelsat
1.00271692;0.0003123;0.0141;233.0993;141.7687;121.8846;0;-3.5E-7;0;Intelsat
1.00272014;0.0003123;0.0112;227.5294;149.9023;96.1893;0;-3.3E-7;0;Intelsat
1.0027212;0.0003122;0.0101;225.4477;152.8896;215.1395;0;-3.3E-7;0;Intelsat
1.00272374;0.0003118;0.0124;212.4531;167.8077;122.1009;0;-3.2E-7;0;Intelsat
1.00272453;0.0003117;0.0119;209.9236;171.0364;213.7284;0;-3.2E-7;0;Intelsat
1.00272696;0.000311;0.0148;203.8105;178.8174;122.5345;0;-3.1E-7;0;Intelsat
1.00272827;0.0003107;0.016;199.4415;184.0743;292.4061;0;-3.1E-7;0;Intelsat
1.00272836;0.0003108;0.0161;200.1397;183.4274;308.6504;0;-3.1E-7;0;Intelsat
1.00272972;0.0003103;0.0162;196.7914;187.7033;97.5487;0;-3.1E-7;0;Intelsat
1.00271239;0.0002965;0.0253;255.7174;131.666;198.3291;0;-3.1E-7;0;Intelsat
1.00272468;0.0003038;0.0248;255.4431;131.6734;308.8462;0;-3.0E-7;0;Intelsat
1.00272461;0.0003022;0.0235;253.9636;134.133;122.6275;0;-3.0E-7;0;Intelsat
1.00272508;0.000302;0.0229;253.462;135.1872;199.8181;0;-3.0E-7;0;Intelsat
1.00272607;0.0003021;0.0222;252.2942;136.4368;317.4955;0;-2.9E-7;0;Intelsat
1.0027269;0.0003012;0.021;250.4608;139.1691;123.9003;0;-2.9E-7;0;Intelsat
1.00272903;0.0003002;0.0185;246.2924;144.5892;125.4607;0;-2.8E-7;0;Intelsat
1.00272958;0.0002995;0.0175;244.6315;146.6757;231.3857;0;-2.7E-7;0;Intelsat
1.00273078;0.0002996;0.0161;241.6527;150.098;75.5679;0;-2.6E-7;0;Intelsat
1.00271786;0.000291;0.0144;239.607;151.4046;283.6336;0;-2.5E-7;0;Intelsat
1.0027196;0.0002922;0.0131;236.8019;154.8105;130.3347;0;-2.4E-7;0;Intelsat
1.00272034;0.0002913;0.012;234.5883;157.2534;285.5765;0;-2.3E-7;0;Intelsat
1.00272128;0.0002918;0.0107;231.7573;160.4233;132.5805;0;-2.2E-7;0;Intelsat
1.00272234;0.0002915;0.0124;222.0002;170.6636;83.0734;0;-2.0E-7;0;Intelsat
1.00272244;0.0002916;0.0123;221.7288;170.9656;108.9444;0;-1.9E-7;0;Intelsat
1.00272342;0.0002912;0.0141;217.1394;175.9372;85.4505;0;-1.7E-7;0;Intelsat
1.00272348;0.0002913;0.0149;217.9256;175.1045;111.4141;0;-1.7E-7;0;Intelsat
1.00272403;0.000291;0.0152;216.373;177.0202;10.1911;0;-1.5E-7;0;Intelsat
1.00272425;0.0002915;0.0165;213.0092;180.5251;87.8013;0;-1.5E-7;0;Intelsat
1.00272434;0.0002918;0.0168;213.273;180.2772;113.7092;0;-1.5E-7;0;Intelsat
1.00272468;0.0002924;0.012;214.8985;178.8488;316.3626;0;-1.4E-7;0;Intelsat
1.00272456;0.0002925;0.003;215.7597;178.387;89.7318;0;-1.4E-7;0;Intelsat
1.00272495;0.000293;0.003;212.7918;181.2437;116.0123;0;-1.3E-7;0;Intelsat
1.00272504;0.0002944;0.0103;226.8001;167.5863;92.5452;0;-1.3E-7;0;Intelsat
1.00272509;0.0002942;0.002;186.8718;207.5234;118.4535;0;-1.3E-7;0;Intelsat
1.00272577;0.0002975;0.002;198.7925;196.0635;120.8263;0;-1.3E-7;0;Intelsat
1.00272528;0.0003037;0.0182;191.0293;204.6586;122.7957;0;-1.5E-7;0;Intelsat
1.00272599;0.0003033;0.0193;191.2909;204.2984;212.8091;0;-1.5E-7;0;Intelsat
1.00272582;0.0003075;0.0178;186.5993;209.7461;47.1879;0;-1.6E-7;0;Intelsat
1.00271539;0.0003007;0.0133;232.2237;166.1566;201.1048;0;-1.8E-7;0;Intelsat
1.00271767;0.0003068;0.0157;224.8415;173.6786;99.6346;0;-2.0E-7;0;Intelsat
1.00271805;0.0003092;0.0163;225.518;173.7013;202.6036;0;-2.1E-7;0;Intelsat
1.00271818;0.0003145;0.018;219.3009;180.8273;120.8573;0;-2.4E-7;0;Intelsat
1.00271846;0.0003169;0.0175;219.9549;180.8688;203.7988;0;-2.5E-7;0;Intelsat
1.00271845;0.0003273;0.0021;196.8656;205.8774;126.9495;0;-2.7E-7;0;Intelsat
1.0027195;0.0003268;0.0041;166.9241;235.9469;218.8528;0;-2.8E-7;0;Intelsat
1.00263702;0.0002991;0.0157;217.0582;179.5886;83.9843;0;-3.1E-7;0;Intelsat
1.002628;0.0003009;0.0177;217.7218;176.5953;112.2272;0;-3.1E-7;0;Intelsat
1.00273381;0.000327;0.0176;208.0052;175.5181;251.5056;0;-3.0E-7;0;Intelsat
1.00272432;0.0003239;0.0186;200.1972;184.344;150.7216;0;-3.2E-7;0;Intelsat
1.00272579;0.0003255;0.0195;195.6658;190.3886;126.1151;0;-3.2E-7;0;Intelsat
1.00272796;0.0003285;0.0166;184.8702;205.3081;124.7843;0;-3.2E-7;0;Intelsat
1.00271898;0.0003272;0.0122;240.4621;153.8916;71.5813;0;-3.2E-7;0;Intelsat
1.00272079;0.0003284;0.0044;226.925;169.1095;303.123;0;-3.1E-7;0;Intelsat
1.002722;0.0003311;0.0176;235.5538;161.7807;97.325;0;-3.0E-7;0;Intelsat
1.00272235;0.0003317;0.0139;243.1181;154.58;136.3184;0;-3.0E-7;0;Intelsat
1.00272328;0.0003316;0.008;261.9233;136.3966;240.2693;0;-3.0E-7;0;Intelsat
1.00272538;0.0003339;0.0123;240.9114;158.9055;97.6471;0;-2.9E-7;0;Intelsat
1.00272561;0.0003342;0.0034;175.8702;224.1802;123.3308;0;-2.9E-7;0;Intelsat
1.00272919;0.0003377;0.019;222.8499;181.0114;44.5844;0;-2.8E-7;0;Intelsat
1.00272196;0.0003306;0.0188;221.0009;184.4875;131.6267;0;-2.8E-7;0;Intelsat
1.00272184;0.0003315;0.0183;217.8496;188.2048;201.1208;0;-2.8E-7;0;Intelsat
1.00272371;0.000326;0.0172;215.9032;188.4916;126.9366;0;-2.7E-7;0;Intelsat
1.00272422;0.0003268;0.0182;214.7675;189.5751;222.7514;0;-2.7E-7;0;Intelsat
1.00272447;0.000327;0.0172;214.4446;190.4509;322.4095;0;-2.6E-7;0;Intelsat
1.00272233;0.0003316;0.0164;215.1813;191.4255;122.453;0;-2.6E-7;0;Intelsat
1.00272404;0.000331;0.0164;211.3932;196.0223;233.3852;0;-2.6E-7;0;Intelsat
1.00272367;0.0003305;0.0157;211.5488;195.4643;321.5924;0;-2.6E-7;0;Intelsat
1.00272446;0.0003303;0.0161;208.0161;199.6365;55.318;0;-2.5E-7;0;Intelsat
1.00270916;0.0003273;0.0147;243.6124;167.3718;279.9005;0;-2.5E-7;0;Intelsat
1.00271065;0.0003283;0.0151;243.7568;167.1822;304.363;0;-2.5E-7;0;Intelsat
1.00271497;0.0003301;0.0158;245.3687;166.8857;125.1311;0;-2.4E-7;0;Intelsat
1.00271627;0.0003298;0.0162;246.7254;165.9614;318.8908;0;-2.4E-7;0;Intelsat
1.00271728;0.0003282;0.0168;243.4318;169.9912;126.756;0;-2.3E-7;0;Intelsat
1.00271864;0.0003277;0.0074;221.2268;193.5419;301.7499;0;-2.2E-7;0;Intelsat
1.00271908;0.0003265;0.0016;202.4606;212.1399;102.4812;0;-2.1E-7;0;Intelsat
1.0027192;0.0003261;0.0016;193.5758;221.145;128.2779;0;-2.1E-7;0;Intelsat
1.00272016;0.0003253;0.018;239.4566;175.7746;304.2787;0;-2.0E-7;0;Intelsat
1.00272103;0.000323;0.0181;231.3682;185.1224;122.0081;0;-1.9E-7;0;Intelsat
1.00274182;0.0003166;0.0187;223.3884;193.533;317.8683;0;-1.7E-7;0;Intelsat
1.00273784;0.0003119;0.0179;218.7032;198.316;105.6717;0;-1.6E-7;0;Intelsat
1.00271759;0.000304;0.0158;229.1559;184.0437;323.3297;0;-1.5E-7;0;Intelsat
1.00271796;0.0003036;0.0152;229.5614;183.3083;112.589;0;-1.4E-7;0;Intelsat
1.00271933;0.0003009;0.0139;230.6126;182.0131;67.5983;0;-1.2E-7;0;Intelsat
1.00274048;0.0003187;0.012;266.3276;150.7663;200.8442;0;-1.1E-7;0;Intelsat
1.00272467;0.0003117;0.0151;258.8283;159.5825;291.2506;0;-1.0E-7;0;Intelsat
1.00272521;0.000312;0.0153;260.6617;157.7405;313.5959;0;-1.0E-7;0;Intelsat
1.00272727;0.0003123;0.014;264.9018;153.3659;112.7866;0;-9.0E-8;0;Intelsat
1.00272775;0.0003103;0.0139;268.8829;149.1539;317.9585;0;-8.0E-8;0;Intelsat
1.00272769;0.0003074;0.0079;282.8829;135.1606;115.829;0;-7.0E-8;0;Intelsat
1.00272856;0.0003093;0.005;219.4023;198.6643;210.16;0;-7.0E-8;0;Intelsat
1.00272845;0.0003094;0.0041;215.3184;202.8669;297.0922;0;-6.0E-8;0;Intelsat
1.00272816;0.0003081;0.0117;273.6626;144.5997;40.6621;0;-6.0E-8;0;Intelsat
1.00272797;0.0003109;0.0151;270.6969;149.5188;234.8971;0;-6.0E-8;0;Intelsat
1.00271414;0.0003129;0.0171;267.8255;153.4177;57.5464;0;-6.0E-8;0;Intelsat
1.00270505;0.0003109;0.0135;270.344;150.8094;62.9431;0;-7.0E-8;0;Intelsat
1.00270526;0.0003114;0.0124;271.3171;149.9858;120.9361;0;-7.0E-8;0;Intelsat
1.00271475;0.0003134;0.0119;272.2418;149.2118;97.6918;0;-9.0E-8;0;Intelsat
1.00270378;0.0003161;0.0132;277.7946;146.0996;201.6933;0;-1.3E-7;0;Intelsat
1.00270212;0.0003169;0.0147;276.2651;147.3721;52.2955;0;-1.5E-7;0;Intelsat
1.00270442;0.0003213;0.0156;276.6406;147.5697;211.4016;0;-1.6E-7;0;Intelsat
1.00270458;0.0003245;0.0174;273.4383;150.9308;103.1703;0;-1.9E-7;0;Intelsat
1.00270541;0.0003284;0.0181;271.5643;153.3221;258.1217;0;-2.0E-7;0;Intelsat
1.00270539;0.0003298;0.0177;270.269;154.6964;1.7091;0;-2.1E-7;0;Intelsat
1.00270436;0.0003486;0.0178;266.2034;162.2082;101.9239;0;-2.2E-7;0;Intelsat
1.00269313;0.0003543;0.0142;266.1288;163.0312;194.5432;0;-2.3E-7;0;Intelsat
1.00269319;0.0003572;0.0138;266.8699;162.669;282.1775;0;-2.3E-7;0;Intelsat
1.00269362;0.0003645;0.0129;266.0918;164.1909;131.0446;0;-2.4E-7;0;Intelsat
1.00274917;0.0003191;0.0119;265.7065;148.194;18.3926;0;-2.4E-7;0;Intelsat
1.00276015;0.0003604;0.0113;266.284;137.3604;132.3108;0;-2.4E-7;0;Intelsat
1.00270898;0.0003336;0.0112;267.2983;140.2487;232.0464;0;-2.5E-7;0;Intelsat
1.00270367;0.000335;0.0095;271.9017;138.0758;144.3108;0;-2.5E-7;0;Intelsat
1.00270467;0.0003336;0.0094;274.1642;136.8729;231.3637;0;-2.5E-7;0;Intelsat
1.00270703;0.0003366;0.0083;281.7536;130.349;77.6208;0;-2.5E-7;0;Intelsat
1.00271057;0.0003238;0.0146;287.6942;122.2492;224.0473;0;-2.5E-7;0;Intelsat
